{"data":{"countries":[{"id":1,"name":"Albania","iso":"AL","zipcodeValidation":null,"phoneCode":355,"phoneValidation":null,"langIso":"sq_AL,sq,en_AL,en","continentId":2,"continent":{"id":2,"name":"Europa","iso":"EU"}},{"id":2,"name":"Afganistán","iso":"AF","zipcodeValidation":null,"phoneCode":93,"phoneValidation":null,"langIso":"fa_AF,fa,uz_AF,uz,en","continentId":1,"continent":{"id":1,"name":"Asia","iso":"AS"}},{"id":3,"name":"Andorra","iso":"AD","zipcodeValidation":null,"phoneCode":376,"phoneValidation":null,"langIso":"ca_AD,ca,en_AD,en","continentId":2,"continent":{"id":2,"name":"Europa","iso":"EU"}},{"id":4,"name":"Alemania","iso":"DE","zipcodeValidation":null,"phoneCode":49,"phoneValidation":null,"langIso":"de_DE,de,en_DE,en,hsb_DE,hsb,dsb_DE,dsb,nds_DE,nds,ksh_DE,ksh","continentId":2,"continent":{"id":2,"name":"Europa","iso":"EU"}},{"id":5,"name":"Angola","iso":"AO","zipcodeValidation":null,"phoneCode":244,"phoneValidation":null,"langIso":"pt_AO,pt,ln_AO,ln,en","continentId":3,"continent":{"id":3,"name":"África","iso":"AF"}},{"id":6,"name":"Antigua y Barbuda","iso":"AG","zipcodeValidation":null,"phoneCode":1268,"phoneValidation":null,"langIso":"es_AG,es,en_AG,en","continentId":4,"continent":{"id":4,"name":"América del Norte","iso":"NA"}},{"id":7,"name":"Anguila","iso":"AI","zipcodeValidation":null,"phoneCode":1264,"phoneValidation":null,"langIso":"es_AI,es,en_AI,en","continentId":4,"continent":{"id":4,"name":"América del Norte","iso":"NA"}},{"id":8,"name":"Arabia Saudita","iso":"SA","zipcodeValidation":null,"phoneCode":966,"phoneValidation":null,"langIso":"ar_SA,ar,en_SA,en","continentId":1,"continent":{"id":1,"name":"Asia","iso":"AS"}},{"id":9,"name":"Argentina","iso":"AR","zipcodeValidation":"1","phoneCode":54,"phoneValidation":"^0[1-3]{1}[0-9]{9}$","langIso":"es_AR,es,en_AR,en","continentId":6,"continent":{"id":6,"name":"América del Sur","iso":"SA"}},{"id":10,"name":"Argelia","iso":"DZ","zipcodeValidation":null,"phoneCode":213,"phoneValidation":null,"langIso":"fr_DZ,fr,kab_DZ,kab,ar_DZ,ar,en","continentId":3,"continent":{"id":3,"name":"África","iso":"AF"}},{"id":11,"name":"Armenia","iso":"AM","zipcodeValidation":null,"phoneCode":374,"phoneValidation":null,"langIso":"hy_AM,hy,en","continentId":2,"continent":{"id":2,"name":"Europa","iso":"EU"}},{"id":12,"name":"Aruba","iso":"AW","zipcodeValidation":null,"phoneCode":297,"phoneValidation":null,"langIso":"es_AW,es,nl_AW,nl,en","continentId":6,"continent":{"id":6,"name":"América del Sur","iso":"SA"}},{"id":13,"name":"Australia","iso":"AU","zipcodeValidation":null,"phoneCode":61,"phoneValidation":null,"langIso":"en_AU,en","continentId":5,"continent":{"id":5,"name":"Oceanía","iso":"OC"}},{"id":14,"name":"Austria","iso":"AT","zipcodeValidation":null,"phoneCode":43,"phoneValidation":null,"langIso":"de_AT,de,en_AT,en","continentId":2,"continent":{"id":2,"name":"Europa","iso":"EU"}},{"id":15,"name":"Azerbaiyán","iso":"AZ","zipcodeValidation":null,"phoneCode":994,"phoneValidation":null,"langIso":"az_AZ,az,en","continentId":2,"continent":{"id":2,"name":"Europa","iso":"EU"}},{"id":16,"name":"Bahréin","iso":"BH","zipcodeValidation":null,"phoneCode":973,"phoneValidation":null,"langIso":"ar_BH,ar,en","continentId":1,"continent":{"id":1,"name":"Asia","iso":"AS"}},{"id":17,"name":"Bahamas","iso":"BS","zipcodeValidation":null,"phoneCode":1242,"phoneValidation":null,"langIso":"en_BS,en,es_BS,es","continentId":4,"continent":{"id":4,"name":"América del Norte","iso":"NA"}},{"id":18,"name":"Bangladesh","iso":"BD","zipcodeValidation":null,"phoneCode":880,"phoneValidation":null,"langIso":"en_BD,en,ccp_BD,ccp,bn_BD,bn","continentId":1,"continent":{"id":1,"name":"Asia","iso":"AS"}},{"id":19,"name":"Barbados","iso":"BB","zipcodeValidation":null,"phoneCode":1246,"phoneValidation":null,"langIso":"es_BB,es,en_BB,en","continentId":4,"continent":{"id":4,"name":"América del Norte","iso":"NA"}},{"id":20,"name":"Bélgica","iso":"BE","zipcodeValidation":null,"phoneCode":32,"phoneValidation":null,"langIso":"de_BE,de,fr_BE,fr,en_BE,en,wa_BE,wa,nl_BE,nl","continentId":2,"continent":{"id":2,"name":"Europa","iso":"EU"}},{"id":21,"name":"Belice","iso":"BZ","zipcodeValidation":null,"phoneCode":501,"phoneValidation":null,"langIso":"es_BZ,es,en_BZ,en","continentId":4,"continent":{"id":4,"name":"América del Norte","iso":"NA"}},{"id":22,"name":"Bielorrusia","iso":"BY","zipcodeValidation":null,"phoneCode":375,"phoneValidation":null,"langIso":"be_BY,be,ru_BY,ru,en","continentId":2,"continent":{"id":2,"name":"Europa","iso":"EU"}},{"id":23,"name":"Benín","iso":"BJ","zipcodeValidation":null,"phoneCode":229,"phoneValidation":null,"langIso":"yo_BJ,yo,fr_BJ,fr,en","continentId":3,"continent":{"id":3,"name":"África","iso":"AF"}},{"id":25,"name":"Bolivia","iso":"BO","zipcodeValidation":null,"phoneCode":591,"phoneValidation":null,"langIso":"es_BO,es,qu_BO,qu,en","continentId":6,"continent":{"id":6,"name":"América del Sur","iso":"SA"}},{"id":26,"name":"Bosnia y Herzegovina","iso":"BA","zipcodeValidation":null,"phoneCode":387,"phoneValidation":null,"langIso":"sr_BA,sr,hr_BA,hr,bs_BA,bs,en_BA,en","continentId":2,"continent":{"id":2,"name":"Europa","iso":"EU"}},{"id":27,"name":"Brasil","iso":"BR","zipcodeValidation":null,"phoneCode":55,"phoneValidation":null,"langIso":"pt_BR,pt,es_BR,es,en_BR,en","continentId":6,"continent":{"id":6,"name":"América del Sur","iso":"SA"}},{"id":28,"name":"Botswana","iso":"BW","zipcodeValidation":null,"phoneCode":267,"phoneValidation":null,"langIso":"tn_BW,tn,en_BW,en","continentId":3,"continent":{"id":3,"name":"África","iso":"AF"}},{"id":29,"name":"Brunei Darussalam","iso":"BN","zipcodeValidation":null,"phoneCode":673,"phoneValidation":null,"langIso":"ms_BN,ms,en","continentId":1,"continent":{"id":1,"name":"Asia","iso":"AS"}},{"id":30,"name":"Bulgaria","iso":"BG","zipcodeValidation":null,"phoneCode":359,"phoneValidation":null,"langIso":"bg_BG,bg,en_BG,en","continentId":2,"continent":{"id":2,"name":"Europa","iso":"EU"}},{"id":31,"name":"Burkina Faso","iso":"BF","zipcodeValidation":null,"phoneCode":226,"phoneValidation":null,"langIso":"ff_BF,ff,fr_BF,fr,en","continentId":3,"continent":{"id":3,"name":"África","iso":"AF"}},{"id":32,"name":"Burundi","iso":"BI","zipcodeValidation":null,"phoneCode":257,"phoneValidation":null,"langIso":"rn_BI,rn,fr_BI,fr,en_BI,en","continentId":3,"continent":{"id":3,"name":"África","iso":"AF"}},{"id":33,"name":"Bután","iso":"BT","zipcodeValidation":null,"phoneCode":975,"phoneValidation":null,"langIso":"dz_BT,dz,en","continentId":1,"continent":{"id":1,"name":"Asia","iso":"AS"}},{"id":34,"name":"Camboya","iso":"KH","zipcodeValidation":null,"phoneCode":855,"phoneValidation":null,"langIso":"km_KH,km,en","continentId":1,"continent":{"id":1,"name":"Asia","iso":"AS"}},{"id":35,"name":"Cabo Verde","iso":"CV","zipcodeValidation":null,"phoneCode":238,"phoneValidation":null,"langIso":"pt_CV,pt,kea_CV,kea,en","continentId":3,"continent":{"id":3,"name":"África","iso":"AF"}},{"id":36,"name":"Camerún","iso":"CM","zipcodeValidation":null,"phoneCode":237,"phoneValidation":null,"langIso":"yav_CM,yav,jgo_CM,jgo,nnh_CM,nnh,mua_CM,mua,mgo_CM,mgo,nmg_CM,nmg,kkj_CM,kkj,ff_CM,ff,fr_CM,fr,ewo_CM,ewo,en_CM,en,dua_CM,dua,bas_CM,bas,ksf_CM,ksf,agq_CM,agq","continentId":3,"continent":{"id":3,"name":"África","iso":"AF"}},{"id":37,"name":"Canadá","iso":"CA","zipcodeValidation":null,"phoneCode":1,"phoneValidation":null,"langIso":"en_CA,en,fr_CA,fr,es_CA,es,moh_CA,moh,iu_CA,iu","continentId":4,"continent":{"id":4,"name":"América del Norte","iso":"NA"}},{"id":38,"name":"Chad","iso":"TD","zipcodeValidation":null,"phoneCode":235,"phoneValidation":null,"langIso":"fr_TD,fr,ar_TD,ar,en","continentId":3,"continent":{"id":3,"name":"África","iso":"AF"}},{"id":39,"name":"China","iso":"CN","zipcodeValidation":null,"phoneCode":86,"phoneValidation":null,"langIso":"zh_CN,zh,ug_CN,ug,bo_CN,bo,ii_CN,ii,en_CN,en,yue_CN,yue","continentId":1,"continent":{"id":1,"name":"Asia","iso":"AS"}},{"id":40,"name":"Chile","iso":"CL","zipcodeValidation":null,"phoneCode":56,"phoneValidation":null,"langIso":"es_CL,es,en_CL,en,arn_CL,arn","continentId":6,"continent":{"id":6,"name":"América del Sur","iso":"SA"}},{"id":41,"name":"Chipre","iso":"CY","zipcodeValidation":null,"phoneCode":357,"phoneValidation":null,"langIso":"tr_CY,tr,el_CY,el,en_CY,en","continentId":2,"continent":{"id":2,"name":"Europa","iso":"EU"}},{"id":42,"name":"Comoras","iso":"KM","zipcodeValidation":null,"phoneCode":269,"phoneValidation":null,"langIso":"fr_KM,fr,ar_KM,ar,en","continentId":3,"continent":{"id":3,"name":"África","iso":"AF"}},{"id":43,"name":"Colombia","iso":"CO","zipcodeValidation":null,"phoneCode":57,"phoneValidation":null,"langIso":"es_CO,es,en_CO,en","continentId":6,"continent":{"id":6,"name":"América del Sur","iso":"SA"}},{"id":44,"name":"Corea del Norte","iso":"KP","zipcodeValidation":null,"phoneCode":850,"phoneValidation":null,"langIso":"ko_KP,ko,en","continentId":1,"continent":{"id":1,"name":"Asia","iso":"AS"}},{"id":45,"name":"Corea del Sur","iso":"KR","zipcodeValidation":null,"phoneCode":82,"phoneValidation":null,"langIso":"ko_KR,ko,en_KR,en","continentId":1,"continent":{"id":1,"name":"Asia","iso":"AS"}},{"id":46,"name":"Costa de Marfil","iso":"CI","zipcodeValidation":null,"phoneCode":225,"phoneValidation":null,"langIso":"fr_CI,fr,en","continentId":3,"continent":{"id":3,"name":"África","iso":"AF"}},{"id":47,"name":"Costa Rica","iso":"CR","zipcodeValidation":null,"phoneCode":506,"phoneValidation":null,"langIso":"es_CR,es,en","continentId":4,"continent":{"id":4,"name":"América del Norte","iso":"NA"}},{"id":48,"name":"Croacia","iso":"HR","zipcodeValidation":null,"phoneCode":385,"phoneValidation":null,"langIso":"hr_HR,hr,en_HR,en","continentId":2,"continent":{"id":2,"name":"Europa","iso":"EU"}},{"id":49,"name":"Dinamarca","iso":"DK","zipcodeValidation":null,"phoneCode":45,"phoneValidation":null,"langIso":"da_DK,da,en_DK,en,fo_DK,fo","continentId":2,"continent":{"id":2,"name":"Europa","iso":"EU"}},{"id":50,"name":"Cuba","iso":"CU","zipcodeValidation":null,"phoneCode":53,"phoneValidation":null,"langIso":"es_CU,es,en","continentId":4,"continent":{"id":4,"name":"América del Norte","iso":"NA"}},{"id":52,"name":"Dominica","iso":"DM","zipcodeValidation":null,"phoneCode":1767,"phoneValidation":null,"langIso":"es_DM,es,en_DM,en","continentId":4,"continent":{"id":4,"name":"América del Norte","iso":"NA"}},{"id":53,"name":"Ecuador","iso":"EC","zipcodeValidation":null,"phoneCode":593,"phoneValidation":null,"langIso":"es_EC,es,qu_EC,qu,en","continentId":6,"continent":{"id":6,"name":"América del Sur","iso":"SA"}},{"id":54,"name":"Egipto","iso":"EG","zipcodeValidation":null,"phoneCode":20,"phoneValidation":null,"langIso":"ar_EG,ar,en","continentId":3,"continent":{"id":3,"name":"África","iso":"AF"}},{"id":55,"name":"El Salvador","iso":"SV","zipcodeValidation":null,"phoneCode":503,"phoneValidation":null,"langIso":"es_SV,es,en","continentId":4,"continent":{"id":4,"name":"América del Norte","iso":"NA"}},{"id":56,"name":"Emiratos Árabes Unidos","iso":"AE","zipcodeValidation":null,"phoneCode":971,"phoneValidation":null,"langIso":"ar_AE,ar,en_AE,en","continentId":1,"continent":{"id":1,"name":"Asia","iso":"AS"}},{"id":57,"name":"Eslovaquia","iso":"SK","zipcodeValidation":null,"phoneCode":421,"phoneValidation":null,"langIso":"sk_SK,sk,en_SK,en","continentId":2,"continent":{"id":2,"name":"Europa","iso":"EU"}},{"id":58,"name":"Eritrea","iso":"ER","zipcodeValidation":null,"phoneCode":291,"phoneValidation":null,"langIso":"ti_ER,ti,tig_ER,tig,gez_ER,gez,en_ER,en,byn_ER,byn,ar_ER,ar","continentId":3,"continent":{"id":3,"name":"África","iso":"AF"}},{"id":59,"name":"Eslovenia","iso":"SI","zipcodeValidation":null,"phoneCode":386,"phoneValidation":null,"langIso":"sl_SI,sl,en_SI,en","continentId":2,"continent":{"id":2,"name":"Europa","iso":"EU"}},{"id":60,"name":"España","iso":"ES","zipcodeValidation":null,"phoneCode":34,"phoneValidation":null,"langIso":"es_ES,es,gl_ES,gl,ca_ES,ca,eu_ES,eu,ast_ES,ast,en_ES,en","continentId":2,"continent":{"id":2,"name":"Europa","iso":"EU"}},{"id":61,"name":"Estados Federados de Micronesia","iso":"FM","zipcodeValidation":null,"phoneCode":691,"phoneValidation":null,"langIso":"en_FM,en","continentId":5,"continent":{"id":5,"name":"Oceanía","iso":"OC"}},{"id":62,"name":"Estonia","iso":"EE","zipcodeValidation":null,"phoneCode":372,"phoneValidation":null,"langIso":"et_EE,et,en_EE,en","continentId":2,"continent":{"id":2,"name":"Europa","iso":"EU"}},{"id":63,"name":"Estados Unidos","iso":"US","zipcodeValidation":null,"phoneCode":1,"phoneValidation":null,"langIso":"en_US,en,es_US,es,lkt_US,lkt,haw_US,haw,chr_US,chr","continentId":4,"continent":{"id":4,"name":"América del Norte","iso":"NA"}},{"id":65,"name":"Etiopía","iso":"ET","zipcodeValidation":null,"phoneCode":251,"phoneValidation":null,"langIso":"wal_ET,wal,ti_ET,ti,so_ET,so,om_ET,om,gez_ET,gez,am_ET,am,en","continentId":3,"continent":{"id":3,"name":"África","iso":"AF"}},{"id":66,"name":"Filipinas","iso":"PH","zipcodeValidation":null,"phoneCode":63,"phoneValidation":null,"langIso":"es_PH,es,fil_PH,fil,en_PH,en,ceb_PH,ceb","continentId":1,"continent":{"id":1,"name":"Asia","iso":"AS"}},{"id":67,"name":"Fiyi","iso":"FJ","zipcodeValidation":null,"phoneCode":679,"phoneValidation":null,"langIso":"en_FJ,en","continentId":5,"continent":{"id":5,"name":"Oceanía","iso":"OC"}},{"id":68,"name":"Finlandia","iso":"FI","zipcodeValidation":null,"phoneCode":358,"phoneValidation":null,"langIso":"fi_FI,fi,sv_FI,sv,en_FI,en,se_FI,se,smn_FI,smn","continentId":2,"continent":{"id":2,"name":"Europa","iso":"EU"}},{"id":69,"name":"Gabón","iso":"GA","zipcodeValidation":null,"phoneCode":241,"phoneValidation":null,"langIso":"fr_GA,fr,en","continentId":3,"continent":{"id":3,"name":"África","iso":"AF"}},{"id":70,"name":"Francia","iso":"FR","zipcodeValidation":null,"phoneCode":33,"phoneValidation":null,"langIso":"fr_FR,fr,en_FR,en,gsw_FR,gsw,pt_FR,pt,oc_FR,oc,co_FR,co,ca_FR,ca,br_FR,br","continentId":2,"continent":{"id":2,"name":"Europa","iso":"EU"}},{"id":71,"name":"Gambia","iso":"GM","zipcodeValidation":null,"phoneCode":220,"phoneValidation":null,"langIso":"ff_GM,ff,en_GM,en","continentId":3,"continent":{"id":3,"name":"África","iso":"AF"}},{"id":72,"name":"Georgia","iso":"GE","zipcodeValidation":null,"phoneCode":995,"phoneValidation":null,"langIso":"os_GE,os,ka_GE,ka,en","continentId":2,"continent":{"id":2,"name":"Europa","iso":"EU"}},{"id":73,"name":"Ghana","iso":"GH","zipcodeValidation":null,"phoneCode":233,"phoneValidation":null,"langIso":"ha_GH,ha,gaa_GH,gaa,ff_GH,ff,ee_GH,ee,en_GH,en,ak_GH,ak","continentId":3,"continent":{"id":3,"name":"África","iso":"AF"}},{"id":74,"name":"Granada","iso":"GD","zipcodeValidation":null,"phoneCode":1473,"phoneValidation":null,"langIso":"es_GD,es,en_GD,en","continentId":4,"continent":{"id":4,"name":"América del Norte","iso":"NA"}},{"id":75,"name":"Grecia","iso":"GR","zipcodeValidation":null,"phoneCode":30,"phoneValidation":null,"langIso":"el_GR,el,en_GR,en","continentId":2,"continent":{"id":2,"name":"Europa","iso":"EU"}},{"id":76,"name":"Groenlandia","iso":"GL","zipcodeValidation":null,"phoneCode":299,"phoneValidation":null,"langIso":"es_GL,es,kl_GL,kl,da_GL,da,en","continentId":4,"continent":{"id":4,"name":"América del Norte","iso":"NA"}},{"id":77,"name":"Guadalupe","iso":"GP","zipcodeValidation":null,"phoneCode":590,"phoneValidation":null,"langIso":"es_GP,es,fr_GP,fr,en","continentId":4,"continent":{"id":4,"name":"América del Norte","iso":"NA"}},{"id":78,"name":"Guam","iso":"GU","zipcodeValidation":null,"phoneCode":1671,"phoneValidation":null,"langIso":"en_GU,en","continentId":5,"continent":{"id":5,"name":"Oceanía","iso":"OC"}},{"id":79,"name":"Guatemala","iso":"GT","zipcodeValidation":null,"phoneCode":502,"phoneValidation":null,"langIso":"es_GT,es,en","continentId":4,"continent":{"id":4,"name":"América del Norte","iso":"NA"}},{"id":80,"name":"Guayana Francesa","iso":"GF","zipcodeValidation":null,"phoneCode":594,"phoneValidation":null,"langIso":"es_GF,es,fr_GF,fr,en","continentId":6,"continent":{"id":6,"name":"América del Sur","iso":"SA"}},{"id":81,"name":"Guinea","iso":"GN","zipcodeValidation":null,"phoneCode":224,"phoneValidation":null,"langIso":"nqo_GN,nqo,kpe_GN,kpe,ff_GN,ff,fr_GN,fr,en","continentId":3,"continent":{"id":3,"name":"África","iso":"AF"}},{"id":82,"name":"Guinea Ecuatorial","iso":"GQ","zipcodeValidation":null,"phoneCode":240,"phoneValidation":null,"langIso":"es_GQ,es,pt_GQ,pt,fr_GQ,fr,en","continentId":3,"continent":{"id":3,"name":"África","iso":"AF"}},{"id":83,"name":"Guinea-Bissau","iso":"GW","zipcodeValidation":null,"phoneCode":245,"phoneValidation":null,"langIso":"pt_GW,pt,ff_GW,ff,en","continentId":3,"continent":{"id":3,"name":"África","iso":"AF"}},{"id":84,"name":"Haití","iso":"HT","zipcodeValidation":null,"phoneCode":509,"phoneValidation":null,"langIso":"es_HT,es,fr_HT,fr,en","continentId":4,"continent":{"id":4,"name":"América del Norte","iso":"NA"}},{"id":85,"name":"Guyana","iso":"GY","zipcodeValidation":null,"phoneCode":592,"phoneValidation":null,"langIso":"es_GY,es,en_GY,en","continentId":6,"continent":{"id":6,"name":"América del Sur","iso":"SA"}},{"id":86,"name":"Honduras","iso":"HN","zipcodeValidation":null,"phoneCode":504,"phoneValidation":null,"langIso":"es_HN,es,en","continentId":4,"continent":{"id":4,"name":"América del Norte","iso":"NA"}},{"id":87,"name":"Hong Kong","iso":"HK","zipcodeValidation":null,"phoneCode":852,"phoneValidation":null,"langIso":"zh_HK,zh,en_HK,en,yue_HK,yue","continentId":1,"continent":{"id":1,"name":"Asia","iso":"AS"}},{"id":88,"name":"Hungría","iso":"HU","zipcodeValidation":null,"phoneCode":36,"phoneValidation":null,"langIso":"hu_HU,hu,en_HU,en","continentId":2,"continent":{"id":2,"name":"Europa","iso":"EU"}},{"id":89,"name":"Indonesia","iso":"ID","zipcodeValidation":null,"phoneCode":62,"phoneValidation":null,"langIso":"id_ID,id,jv_ID,jv,en_ID,en","continentId":1,"continent":{"id":1,"name":"Asia","iso":"AS"}},{"id":90,"name":"India","iso":"IN","zipcodeValidation":null,"phoneCode":91,"phoneValidation":null,"langIso":"hi_IN,hi,ur_IN,ur,bo_IN,bo,te_IN,te,ta_IN,ta,sat_IN,sat,sa_IN,sa,pa_IN,pa,or_IN,or,ne_IN,ne,mr_IN,mr,mni_IN,mni,ml_IN,ml,kok_IN,kok,ks_IN,ks,kn_IN,kn,gu_IN,gu,en_IN,en,ccp_IN,ccp,brx_IN,brx,bn_IN,bn,as_IN,as","continentId":1,"continent":{"id":1,"name":"Asia","iso":"AS"}},{"id":91,"name":"Irak","iso":"IQ","zipcodeValidation":null,"phoneCode":964,"phoneValidation":null,"langIso":"syr_IQ,syr,lrc_IQ,lrc,ckb_IQ,ckb,ar_IQ,ar,en","continentId":1,"continent":{"id":1,"name":"Asia","iso":"AS"}},{"id":92,"name":"Irán","iso":"IR","zipcodeValidation":null,"phoneCode":98,"phoneValidation":null,"langIso":"fa_IR,fa,lrc_IR,lrc,mzn_IR,mzn,ckb_IR,ckb,en","continentId":1,"continent":{"id":1,"name":"Asia","iso":"AS"}},{"id":93,"name":"Irlanda","iso":"IE","zipcodeValidation":null,"phoneCode":353,"phoneValidation":null,"langIso":"ga_IE,ga,en_IE,en","continentId":2,"continent":{"id":2,"name":"Europa","iso":"EU"}},{"id":94,"name":"Isla de Man","iso":"IM","zipcodeValidation":null,"phoneCode":44,"phoneValidation":null,"langIso":"gv_IM,gv,en_IM,en","continentId":2,"continent":{"id":2,"name":"Europa","iso":"EU"}},{"id":95,"name":"Islandia","iso":"IS","zipcodeValidation":null,"phoneCode":354,"phoneValidation":null,"langIso":"is_IS,is,en_IS,en","continentId":2,"continent":{"id":2,"name":"Europa","iso":"EU"}},{"id":96,"name":"Islas Bermudas","iso":"BM","zipcodeValidation":null,"phoneCode":1441,"phoneValidation":null,"langIso":"es_BM,es,en_BM,en","continentId":4,"continent":{"id":4,"name":"América del Norte","iso":"NA"}},{"id":97,"name":"Islas Caimán","iso":"KY","zipcodeValidation":null,"phoneCode":1345,"phoneValidation":null,"langIso":"es_KY,es,en_KY,en","continentId":4,"continent":{"id":4,"name":"América del Norte","iso":"NA"}},{"id":98,"name":"Islas Feroe","iso":"FO","zipcodeValidation":null,"phoneCode":298,"phoneValidation":null,"langIso":"fo_FO,fo,en","continentId":2,"continent":{"id":2,"name":"Europa","iso":"EU"}},{"id":99,"name":"Islas Maldivas","iso":"MV","zipcodeValidation":null,"phoneCode":960,"phoneValidation":null,"langIso":"en_MV,en,dv_MV,dv","continentId":1,"continent":{"id":1,"name":"Asia","iso":"AS"}},{"id":100,"name":"Islas Marianas del Norte","iso":"MP","zipcodeValidation":null,"phoneCode":1670,"phoneValidation":null,"langIso":"en_MP,en","continentId":5,"continent":{"id":5,"name":"Oceanía","iso":"OC"}},{"id":101,"name":"Islas Marshall","iso":"MH","zipcodeValidation":null,"phoneCode":692,"phoneValidation":null,"langIso":"en_MH,en","continentId":5,"continent":{"id":5,"name":"Oceanía","iso":"OC"}},{"id":102,"name":"Israel","iso":"IL","zipcodeValidation":null,"phoneCode":972,"phoneValidation":null,"langIso":"he_IL,he,en_IL,en,ar_IL,ar","continentId":1,"continent":{"id":1,"name":"Asia","iso":"AS"}},{"id":103,"name":"Islas Salomón","iso":"SB","zipcodeValidation":null,"phoneCode":677,"phoneValidation":null,"langIso":"en_SB,en","continentId":5,"continent":{"id":5,"name":"Oceanía","iso":"OC"}},{"id":104,"name":"Islas Vírgenes de los Estados Unidos","iso":"VI","zipcodeValidation":null,"phoneCode":1340,"phoneValidation":null,"langIso":"es_VI,es,en_VI,en","continentId":4,"continent":{"id":4,"name":"América del Norte","iso":"NA"}},{"id":105,"name":"Islas Turcas y Caicos","iso":"TC","zipcodeValidation":null,"phoneCode":1649,"phoneValidation":null,"langIso":"es_TC,es,en_TC,en","continentId":4,"continent":{"id":4,"name":"América del Norte","iso":"NA"}},{"id":106,"name":"Jersey","iso":"JE","zipcodeValidation":null,"phoneCode":44,"phoneValidation":null,"langIso":"en_JE,en","continentId":2,"continent":{"id":2,"name":"Europa","iso":"EU"}},{"id":107,"name":"Italia","iso":"IT","zipcodeValidation":null,"phoneCode":39,"phoneValidation":null,"langIso":"it_IT,it,de_IT,de,en_IT,en,scn_IT,scn,sc_IT,sc,fur_IT,fur,ca_IT,ca","continentId":2,"continent":{"id":2,"name":"Europa","iso":"EU"}},{"id":108,"name":"Japón","iso":"JP","zipcodeValidation":null,"phoneCode":81,"phoneValidation":null,"langIso":"ja_JP,ja,en_JP,en","continentId":1,"continent":{"id":1,"name":"Asia","iso":"AS"}},{"id":109,"name":"Jordania","iso":"JO","zipcodeValidation":null,"phoneCode":962,"phoneValidation":null,"langIso":"ar_JO,ar,en","continentId":1,"continent":{"id":1,"name":"Asia","iso":"AS"}},{"id":110,"name":"Jamaica","iso":"JM","zipcodeValidation":null,"phoneCode":1876,"phoneValidation":null,"langIso":"en_JM,en","continentId":4,"continent":{"id":4,"name":"América del Norte","iso":"NA"}},{"id":111,"name":"Kazajistán","iso":"KZ","zipcodeValidation":null,"phoneCode":7,"phoneValidation":null,"langIso":"kk_KZ,kk,ru_KZ,ru,en","continentId":1,"continent":{"id":1,"name":"Asia","iso":"AS"}},{"id":112,"name":"Kenia","iso":"KE","zipcodeValidation":null,"phoneCode":254,"phoneValidation":null,"langIso":"teo_KE,teo,dav_KE,dav,sw_KE,sw,so_KE,so,saq_KE,saq,om_KE,om,mer_KE,mer,mas_KE,mas,luy_KE,luy,luo_KE,luo,ki_KE,ki,kam_KE,kam,kln_KE,kln,guz_KE,guz,en_KE,en,ebu_KE,ebu","continentId":3,"continent":{"id":3,"name":"África","iso":"AF"}},{"id":113,"name":"Kirguistán","iso":"KG","zipcodeValidation":null,"phoneCode":996,"phoneValidation":null,"langIso":"ru_KG,ru,ky_KG,ky,en","continentId":1,"continent":{"id":1,"name":"Asia","iso":"AS"}},{"id":114,"name":"Kiribati","iso":"KI","zipcodeValidation":null,"phoneCode":686,"phoneValidation":null,"langIso":"en_KI,en","continentId":5,"continent":{"id":5,"name":"Oceanía","iso":"OC"}},{"id":116,"name":"Kuwait","iso":"KW","zipcodeValidation":null,"phoneCode":965,"phoneValidation":null,"langIso":"ar_KW,ar,en","continentId":1,"continent":{"id":1,"name":"Asia","iso":"AS"}},{"id":117,"name":"Laos","iso":"LA","zipcodeValidation":null,"phoneCode":856,"phoneValidation":null,"langIso":"lo_LA,lo,en","continentId":1,"continent":{"id":1,"name":"Asia","iso":"AS"}},{"id":118,"name":"Letonia","iso":"LV","zipcodeValidation":null,"phoneCode":371,"phoneValidation":null,"langIso":"lv_LV,lv,en_LV,en","continentId":2,"continent":{"id":2,"name":"Europa","iso":"EU"}},{"id":119,"name":"Líbano","iso":"LB","zipcodeValidation":null,"phoneCode":961,"phoneValidation":null,"langIso":"ar_LB,ar,en","continentId":1,"continent":{"id":1,"name":"Asia","iso":"AS"}},{"id":120,"name":"Lesoto","iso":"LS","zipcodeValidation":null,"phoneCode":266,"phoneValidation":null,"langIso":"st_LS,st,en_LS,en","continentId":3,"continent":{"id":3,"name":"África","iso":"AF"}},{"id":121,"name":"Liberia","iso":"LR","zipcodeValidation":null,"phoneCode":231,"phoneValidation":null,"langIso":"vai_LR,vai,kpe_LR,kpe,ff_LR,ff,en_LR,en","continentId":3,"continent":{"id":3,"name":"África","iso":"AF"}},{"id":122,"name":"Liechtenstein","iso":"LI","zipcodeValidation":null,"phoneCode":423,"phoneValidation":null,"langIso":"gsw_LI,gsw,de_LI,de,en","continentId":2,"continent":{"id":2,"name":"Europa","iso":"EU"}},{"id":123,"name":"Libia","iso":"LY","zipcodeValidation":null,"phoneCode":218,"phoneValidation":null,"langIso":"ar_LY,ar,en","continentId":3,"continent":{"id":3,"name":"África","iso":"AF"}},{"id":124,"name":"Luxemburgo","iso":"LU","zipcodeValidation":null,"phoneCode":352,"phoneValidation":null,"langIso":"lb_LU,lb,pt_LU,pt,de_LU,de,fr_LU,fr,en_LU,en","continentId":2,"continent":{"id":2,"name":"Europa","iso":"EU"}},{"id":125,"name":"Lituania","iso":"LT","zipcodeValidation":null,"phoneCode":370,"phoneValidation":null,"langIso":"lt_LT,lt,en_LT,en","continentId":2,"continent":{"id":2,"name":"Europa","iso":"EU"}},{"id":126,"name":"Macedonia","iso":"MK","zipcodeValidation":null,"phoneCode":389,"phoneValidation":null,"langIso":"mk_MK,mk,sq_MK,sq,en","continentId":2,"continent":{"id":2,"name":"Europa","iso":"EU"}},{"id":127,"name":"Malasia","iso":"MY","zipcodeValidation":null,"phoneCode":60,"phoneValidation":null,"langIso":"ms_MY,ms,ta_MY,ta,en_MY,en","continentId":1,"continent":{"id":1,"name":"Asia","iso":"AS"}},{"id":128,"name":"Madagascar","iso":"MG","zipcodeValidation":null,"phoneCode":261,"phoneValidation":null,"langIso":"mg_MG,mg,fr_MG,fr,en_MG,en","continentId":3,"continent":{"id":3,"name":"África","iso":"AF"}},{"id":129,"name":"Malawi","iso":"MW","zipcodeValidation":null,"phoneCode":265,"phoneValidation":null,"langIso":"ny_MW,ny,en_MW,en","continentId":3,"continent":{"id":3,"name":"África","iso":"AF"}},{"id":130,"name":"Mali","iso":"ML","zipcodeValidation":null,"phoneCode":223,"phoneValidation":null,"langIso":"ses_ML,ses,khq_ML,khq,fr_ML,fr,bm_ML,bm,en","continentId":3,"continent":{"id":3,"name":"África","iso":"AF"}},{"id":131,"name":"Marruecos","iso":"MA","zipcodeValidation":null,"phoneCode":212,"phoneValidation":null,"langIso":"shi_MA,shi,zgh_MA,zgh,fr_MA,fr,tzm_MA,tzm,ar_MA,ar,en","continentId":3,"continent":{"id":3,"name":"África","iso":"AF"}},{"id":132,"name":"Martinica","iso":"MQ","zipcodeValidation":null,"phoneCode":596,"phoneValidation":null,"langIso":"es_MQ,es,fr_MQ,fr,en","continentId":4,"continent":{"id":4,"name":"América del Norte","iso":"NA"}},{"id":133,"name":"Malta","iso":"MT","zipcodeValidation":null,"phoneCode":356,"phoneValidation":null,"langIso":"mt_MT,mt,en_MT,en","continentId":2,"continent":{"id":2,"name":"Europa","iso":"EU"}},{"id":134,"name":"Mauritania","iso":"MR","zipcodeValidation":null,"phoneCode":222,"phoneValidation":null,"langIso":"ff_MR,ff,fr_MR,fr,ar_MR,ar,en","continentId":3,"continent":{"id":3,"name":"África","iso":"AF"}},{"id":135,"name":"Mauricio","iso":"MU","zipcodeValidation":null,"phoneCode":230,"phoneValidation":null,"langIso":"mfe_MU,mfe,fr_MU,fr,en_MU,en","continentId":3,"continent":{"id":3,"name":"África","iso":"AF"}},{"id":136,"name":"México","iso":"MX","zipcodeValidation":null,"phoneCode":52,"phoneValidation":null,"langIso":"es_MX,es,en_MX,en","continentId":4,"continent":{"id":4,"name":"América del Norte","iso":"NA"}},{"id":137,"name":"Moldavia","iso":"MD","zipcodeValidation":null,"phoneCode":373,"phoneValidation":null,"langIso":"ru_MD,ru,ro_MD,ro,en","continentId":2,"continent":{"id":2,"name":"Europa","iso":"EU"}},{"id":138,"name":"Mónaco","iso":"MC","zipcodeValidation":null,"phoneCode":377,"phoneValidation":null,"langIso":"fr_MC,fr,en","continentId":2,"continent":{"id":2,"name":"Europa","iso":"EU"}},{"id":139,"name":"Montenegro","iso":"ME","zipcodeValidation":null,"phoneCode":382,"phoneValidation":null,"langIso":"sr_ME,sr,en_ME,en","continentId":2,"continent":{"id":2,"name":"Europa","iso":"EU"}},{"id":140,"name":"Mongolia","iso":"MN","zipcodeValidation":null,"phoneCode":976,"phoneValidation":null,"langIso":"mn_MN,mn,en","continentId":1,"continent":{"id":1,"name":"Asia","iso":"AS"}},{"id":141,"name":"Montserrat","iso":"MS","zipcodeValidation":null,"phoneCode":1664,"phoneValidation":null,"langIso":"es_MS,es,en_MS,en","continentId":4,"continent":{"id":4,"name":"América del Norte","iso":"NA"}},{"id":143,"name":"Mozambique","iso":"MZ","zipcodeValidation":null,"phoneCode":258,"phoneValidation":null,"langIso":"seh_MZ,seh,pt_MZ,pt,mgh_MZ,mgh,en","continentId":3,"continent":{"id":3,"name":"África","iso":"AF"}},{"id":144,"name":"Nauru","iso":"NR","zipcodeValidation":null,"phoneCode":674,"phoneValidation":null,"langIso":"en_NR,en","continentId":5,"continent":{"id":5,"name":"Oceanía","iso":"OC"}},{"id":145,"name":"Namibia","iso":"NA","zipcodeValidation":null,"phoneCode":264,"phoneValidation":null,"langIso":"naq_NA,naq,en_NA,en,af_NA,af","continentId":3,"continent":{"id":3,"name":"África","iso":"AF"}},{"id":146,"name":"Nepal","iso":"NP","zipcodeValidation":null,"phoneCode":977,"phoneValidation":null,"langIso":"ne_NP,ne,en","continentId":1,"continent":{"id":1,"name":"Asia","iso":"AS"}},{"id":147,"name":"Nicaragua","iso":"NI","zipcodeValidation":null,"phoneCode":505,"phoneValidation":null,"langIso":"es_NI,es,en","continentId":4,"continent":{"id":4,"name":"América del Norte","iso":"NA"}},{"id":148,"name":"Nigeria","iso":"NG","zipcodeValidation":null,"phoneCode":234,"phoneValidation":null,"langIso":"yo_NG,yo,kcg_NG,kcg,kaj_NG,kaj,ig_NG,ig,ha_NG,ha,ff_NG,ff,en_NG,en","continentId":3,"continent":{"id":3,"name":"África","iso":"AF"}},{"id":149,"name":"Níger","iso":"NE","zipcodeValidation":null,"phoneCode":227,"phoneValidation":null,"langIso":"dje_NE,dje,twq_NE,twq,ha_NE,ha,ff_NE,ff,fr_NE,fr,en","continentId":3,"continent":{"id":3,"name":"África","iso":"AF"}},{"id":150,"name":"Noruega","iso":"NO","zipcodeValidation":null,"phoneCode":47,"phoneValidation":null,"langIso":"nn_NO,nn,nb_NO,nb,se_NO,se,en_NO,en","continentId":2,"continent":{"id":2,"name":"Europa","iso":"EU"}},{"id":151,"name":"Nueva Caledonia","iso":"NC","zipcodeValidation":null,"phoneCode":687,"phoneValidation":null,"langIso":"fr_NC,fr,en","continentId":5,"continent":{"id":5,"name":"Oceanía","iso":"OC"}},{"id":152,"name":"Nueva Zelanda","iso":"NZ","zipcodeValidation":null,"phoneCode":64,"phoneValidation":null,"langIso":"mi_NZ,mi,en_NZ,en","continentId":5,"continent":{"id":5,"name":"Oceanía","iso":"OC"}},{"id":153,"name":"Omán","iso":"OM","zipcodeValidation":null,"phoneCode":968,"phoneValidation":null,"langIso":"ar_OM,ar,en","continentId":1,"continent":{"id":1,"name":"Asia","iso":"AS"}},{"id":154,"name":"Países Bajos","iso":"NL","zipcodeValidation":null,"phoneCode":31,"phoneValidation":null,"langIso":"nl_NL,nl,en_NL,en,fy_NL,fy,nds_NL,nds","continentId":2,"continent":{"id":2,"name":"Europa","iso":"EU"}},{"id":155,"name":"Pakistán","iso":"PK","zipcodeValidation":null,"phoneCode":92,"phoneValidation":null,"langIso":"ur_PK,ur,sd_PK,sd,pa_PK,pa,ps_PK,ps,en_PK,en","continentId":1,"continent":{"id":1,"name":"Asia","iso":"AS"}},{"id":156,"name":"Palau","iso":"PW","zipcodeValidation":null,"phoneCode":680,"phoneValidation":null,"langIso":"en_PW,en","continentId":5,"continent":{"id":5,"name":"Oceanía","iso":"OC"}},{"id":157,"name":"Palestina","iso":"PS","zipcodeValidation":null,"phoneCode":970,"phoneValidation":null,"langIso":"ar_PS,ar,en","continentId":1,"continent":{"id":1,"name":"Asia","iso":"AS"}},{"id":158,"name":"Panamá","iso":"PA","zipcodeValidation":null,"phoneCode":507,"phoneValidation":null,"langIso":"es_PA,es,en","continentId":4,"continent":{"id":4,"name":"América del Norte","iso":"NA"}},{"id":159,"name":"Papúa Nueva Guinea","iso":"PG","zipcodeValidation":null,"phoneCode":675,"phoneValidation":null,"langIso":"en_PG,en","continentId":5,"continent":{"id":5,"name":"Oceanía","iso":"OC"}},{"id":160,"name":"Paraguay","iso":"PY","zipcodeValidation":null,"phoneCode":595,"phoneValidation":null,"langIso":"es_PY,es,gn_PY,gn,en","continentId":6,"continent":{"id":6,"name":"América del Sur","iso":"SA"}},{"id":161,"name":"Perú","iso":"PE","zipcodeValidation":null,"phoneCode":51,"phoneValidation":null,"langIso":"es_PE,es,qu_PE,qu,en","continentId":6,"continent":{"id":6,"name":"América del Sur","iso":"SA"}},{"id":162,"name":"Polinesia Francesa","iso":"PF","zipcodeValidation":null,"phoneCode":689,"phoneValidation":null,"langIso":"fr_PF,fr,en","continentId":5,"continent":{"id":5,"name":"Oceanía","iso":"OC"}},{"id":163,"name":"Polonia","iso":"PL","zipcodeValidation":null,"phoneCode":48,"phoneValidation":null,"langIso":"pl_PL,pl,en_PL,en","continentId":2,"continent":{"id":2,"name":"Europa","iso":"EU"}},{"id":164,"name":"Puerto Rico","iso":"PR","zipcodeValidation":null,"phoneCode":1,"phoneValidation":null,"langIso":"es_PR,es,en_PR,en","continentId":4,"continent":{"id":4,"name":"América del Norte","iso":"NA"}},{"id":165,"name":"Portugal","iso":"PT","zipcodeValidation":null,"phoneCode":351,"phoneValidation":null,"langIso":"pt_PT,pt,en_PT,en","continentId":2,"continent":{"id":2,"name":"Europa","iso":"EU"}},{"id":166,"name":"Qatar","iso":"QA","zipcodeValidation":null,"phoneCode":974,"phoneValidation":null,"langIso":"ar_QA,ar,en","continentId":1,"continent":{"id":1,"name":"Asia","iso":"AS"}},{"id":167,"name":"República Centroafricana","iso":"CF","zipcodeValidation":null,"phoneCode":236,"phoneValidation":null,"langIso":"sg_CF,sg,ln_CF,ln,fr_CF,fr,en","continentId":3,"continent":{"id":3,"name":"África","iso":"AF"}},{"id":168,"name":"Reino Unido","iso":"GB","zipcodeValidation":null,"phoneCode":44,"phoneValidation":null,"langIso":"en_GB,en,cy_GB,cy,gd_GB,gd,kw_GB,kw","continentId":2,"continent":{"id":2,"name":"Europa","iso":"EU"}},{"id":169,"name":"República Checa","iso":"CZ","zipcodeValidation":null,"phoneCode":420,"phoneValidation":null,"langIso":"en_CZ,en,cs_CZ,cs","continentId":2,"continent":{"id":2,"name":"Europa","iso":"EU"}},{"id":170,"name":"República del Congo","iso":"CG","zipcodeValidation":null,"phoneCode":242,"phoneValidation":null,"langIso":"ln_CG,ln,fr_CG,fr,en","continentId":3,"continent":{"id":3,"name":"África","iso":"AF"}},{"id":171,"name":"República Dominicana","iso":"DO","zipcodeValidation":null,"phoneCode":1809,"phoneValidation":null,"langIso":"es_DO,es,en","continentId":4,"continent":{"id":4,"name":"América del Norte","iso":"NA"}},{"id":172,"name":"Ruanda","iso":"RW","zipcodeValidation":null,"phoneCode":250,"phoneValidation":null,"langIso":"rw_RW,rw,fr_RW,fr,en_RW,en","continentId":3,"continent":{"id":3,"name":"África","iso":"AF"}},{"id":173,"name":"Reunión","iso":"RE","zipcodeValidation":null,"phoneCode":262,"phoneValidation":null,"langIso":"fr_RE,fr,en","continentId":3,"continent":{"id":3,"name":"África","iso":"AF"}},{"id":174,"name":"Rumania","iso":"RO","zipcodeValidation":null,"phoneCode":40,"phoneValidation":null,"langIso":"ro_RO,ro,en_RO,en","continentId":2,"continent":{"id":2,"name":"Europa","iso":"EU"}},{"id":175,"name":"Rusia","iso":"RU","zipcodeValidation":null,"phoneCode":7,"phoneValidation":null,"langIso":"ru_RU,ru,tt_RU,tt,sah_RU,sah,os_RU,os,myv_RU,myv,en_RU,en,cv_RU,cv,ce_RU,ce,ba_RU,ba","continentId":2,"continent":{"id":2,"name":"Europa","iso":"EU"}},{"id":176,"name":"Samoa","iso":"WS","zipcodeValidation":null,"phoneCode":685,"phoneValidation":null,"langIso":"en_WS,en","continentId":5,"continent":{"id":5,"name":"Oceanía","iso":"OC"}},{"id":177,"name":"San Cristóbal y Nieves","iso":"KN","zipcodeValidation":null,"phoneCode":1869,"phoneValidation":null,"langIso":"es_KN,es,en_KN,en","continentId":4,"continent":{"id":4,"name":"América del Norte","iso":"NA"}},{"id":178,"name":"San Marino","iso":"SM","zipcodeValidation":null,"phoneCode":378,"phoneValidation":null,"langIso":"it_SM,it,en","continentId":2,"continent":{"id":2,"name":"Europa","iso":"EU"}},{"id":179,"name":"San Martín","iso":"SX","zipcodeValidation":null,"phoneCode":1599,"phoneValidation":null,"langIso":"es_SX,es,en_SX,en,nl_SX,nl","continentId":4,"continent":{"id":4,"name":"América del Norte","iso":"NA"}},{"id":180,"name":"San Pedro y Miquelón","iso":"PM","zipcodeValidation":null,"phoneCode":508,"phoneValidation":null,"langIso":"es_PM,es,fr_PM,fr,en","continentId":4,"continent":{"id":4,"name":"América del Norte","iso":"NA"}},{"id":181,"name":"San Vicente y las Granadinas","iso":"VC","zipcodeValidation":null,"phoneCode":1784,"phoneValidation":null,"langIso":"es_VC,es,en_VC,en","continentId":4,"continent":{"id":4,"name":"América del Norte","iso":"NA"}},{"id":182,"name":"Santa Elena","iso":"SH","zipcodeValidation":null,"phoneCode":290,"phoneValidation":null,"langIso":"en_SH,en","continentId":3,"continent":{"id":3,"name":"África","iso":"AF"}},{"id":183,"name":"Santa Lucía","iso":"LC","zipcodeValidation":null,"phoneCode":1758,"phoneValidation":null,"langIso":"es_LC,es,en_LC,en","continentId":4,"continent":{"id":4,"name":"América del Norte","iso":"NA"}},{"id":184,"name":"Santo Tomé y Príncipe","iso":"ST","zipcodeValidation":null,"phoneCode":239,"phoneValidation":null,"langIso":"pt_ST,pt,en","continentId":3,"continent":{"id":3,"name":"África","iso":"AF"}},{"id":185,"name":"Senegal","iso":"SN","zipcodeValidation":null,"phoneCode":221,"phoneValidation":null,"langIso":"wo_SN,wo,dyo_SN,dyo,ff_SN,ff,fr_SN,fr,en","continentId":3,"continent":{"id":3,"name":"África","iso":"AF"}},{"id":186,"name":"Serbia","iso":"RS","zipcodeValidation":null,"phoneCode":381,"phoneValidation":null,"langIso":"sr_RS,sr,en_RS,en","continentId":2,"continent":{"id":2,"name":"Europa","iso":"EU"}},{"id":187,"name":"Seychelles","iso":"SC","zipcodeValidation":null,"phoneCode":248,"phoneValidation":null,"langIso":"fr_SC,fr,en_SC,en","continentId":3,"continent":{"id":3,"name":"África","iso":"AF"}},{"id":188,"name":"Sierra Leona","iso":"SL","zipcodeValidation":null,"phoneCode":232,"phoneValidation":null,"langIso":"ff_SL,ff,en_SL,en","continentId":3,"continent":{"id":3,"name":"África","iso":"AF"}},{"id":189,"name":"Singapur","iso":"SG","zipcodeValidation":null,"phoneCode":65,"phoneValidation":null,"langIso":"ta_SG,ta,ms_SG,ms,en_SG,en,zh_SG,zh","continentId":1,"continent":{"id":1,"name":"Asia","iso":"AS"}},{"id":190,"name":"Siria","iso":"SY","zipcodeValidation":null,"phoneCode":963,"phoneValidation":null,"langIso":"syr_SY,syr,fr_SY,fr,ar_SY,ar,en","continentId":1,"continent":{"id":1,"name":"Asia","iso":"AS"}},{"id":191,"name":"Somalia","iso":"SO","zipcodeValidation":null,"phoneCode":252,"phoneValidation":null,"langIso":"so_SO,so,ar_SO,ar,en","continentId":3,"continent":{"id":3,"name":"África","iso":"AF"}},{"id":192,"name":"Sri Lanka","iso":"LK","zipcodeValidation":null,"phoneCode":94,"phoneValidation":null,"langIso":"ta_LK,ta,si_LK,si,en","continentId":1,"continent":{"id":1,"name":"Asia","iso":"AS"}},{"id":193,"name":"Sudáfrica","iso":"ZA","zipcodeValidation":null,"phoneCode":27,"phoneValidation":null,"langIso":"zu_ZA,zu,xh_ZA,xh,ve_ZA,ve,tn_ZA,tn,ts_ZA,ts,ss_ZA,ss,st_ZA,st,nr_ZA,nr,nso_ZA,nso,en_ZA,en,af_ZA,af","continentId":3,"continent":{"id":3,"name":"África","iso":"AF"}},{"id":194,"name":"Sudán","iso":"SD","zipcodeValidation":null,"phoneCode":249,"phoneValidation":null,"langIso":"en_SD,en,ar_SD,ar","continentId":3,"continent":{"id":3,"name":"África","iso":"AF"}},{"id":195,"name":"Suecia","iso":"SE","zipcodeValidation":null,"phoneCode":46,"phoneValidation":null,"langIso":"sv_SE,sv,en_SE,en,se_SE,se","continentId":2,"continent":{"id":2,"name":"Europa","iso":"EU"}},{"id":196,"name":"Suiza","iso":"CH","zipcodeValidation":null,"phoneCode":41,"phoneValidation":null,"langIso":"gsw_CH,gsw,wae_CH,wae,rm_CH,rm,pt_CH,pt,it_CH,it,de_CH,de,fr_CH,fr,en_CH,en","continentId":2,"continent":{"id":2,"name":"Europa","iso":"EU"}},{"id":197,"name":"Surinam","iso":"SR","zipcodeValidation":null,"phoneCode":597,"phoneValidation":null,"langIso":"es_SR,es,nl_SR,nl,en","continentId":6,"continent":{"id":6,"name":"América del Sur","iso":"SA"}},{"id":198,"name":"Tailandia","iso":"TH","zipcodeValidation":null,"phoneCode":66,"phoneValidation":null,"langIso":"th_TH,th,en_TH,en","continentId":1,"continent":{"id":1,"name":"Asia","iso":"AS"}},{"id":199,"name":"Taiwán","iso":"TW","zipcodeValidation":null,"phoneCode":886,"phoneValidation":null,"langIso":"zh_TW,zh,en_TW,en,trv_TW,trv","continentId":1,"continent":{"id":1,"name":"Asia","iso":"AS"}},{"id":200,"name":"Tanzania","iso":"TZ","zipcodeValidation":null,"phoneCode":255,"phoneValidation":null,"langIso":"vun_TZ,vun,sw_TZ,sw,ksb_TZ,ksb,sbp_TZ,sbp,rwk_TZ,rwk,rof_TZ,rof,mas_TZ,mas,kde_TZ,kde,jmc_TZ,jmc,lag_TZ,lag,en_TZ,en,bez_TZ,bez,asa_TZ,asa","continentId":3,"continent":{"id":3,"name":"África","iso":"AF"}},{"id":201,"name":"Tayikistán","iso":"TJ","zipcodeValidation":null,"phoneCode":992,"phoneValidation":null,"langIso":"tg_TJ,tg,en","continentId":1,"continent":{"id":1,"name":"Asia","iso":"AS"}},{"id":202,"name":"Togo","iso":"TG","zipcodeValidation":null,"phoneCode":228,"phoneValidation":null,"langIso":"fr_TG,fr,ee_TG,ee,en","continentId":3,"continent":{"id":3,"name":"África","iso":"AF"}},{"id":204,"name":"Tokelau","iso":"TK","zipcodeValidation":null,"phoneCode":690,"phoneValidation":null,"langIso":"en_TK,en","continentId":5,"continent":{"id":5,"name":"Oceanía","iso":"OC"}},{"id":205,"name":"Tonga","iso":"TO","zipcodeValidation":null,"phoneCode":676,"phoneValidation":null,"langIso":"to_TO,to,en_TO,en","continentId":5,"continent":{"id":5,"name":"Oceanía","iso":"OC"}},{"id":206,"name":"Túnez","iso":"TN","zipcodeValidation":null,"phoneCode":216,"phoneValidation":null,"langIso":"fr_TN,fr,ar_TN,ar,en","continentId":3,"continent":{"id":3,"name":"África","iso":"AF"}},{"id":207,"name":"Turkmenistán","iso":"TM","zipcodeValidation":null,"phoneCode":993,"phoneValidation":null,"langIso":"tk_TM,tk,en","continentId":1,"continent":{"id":1,"name":"Asia","iso":"AS"}},{"id":208,"name":"Trinidad y Tobago","iso":"TT","zipcodeValidation":null,"phoneCode":1868,"phoneValidation":null,"langIso":"es_TT,es,en_TT,en","continentId":4,"continent":{"id":4,"name":"América del Norte","iso":"NA"}},{"id":209,"name":"Tuvalu","iso":"TV","zipcodeValidation":null,"phoneCode":688,"phoneValidation":null,"langIso":"en_TV,en","continentId":5,"continent":{"id":5,"name":"Oceanía","iso":"OC"}},{"id":210,"name":"Turquía","iso":"TR","zipcodeValidation":null,"phoneCode":90,"phoneValidation":null,"langIso":"tr_TR,tr,ku_TR,ku,en_TR,en","continentId":2,"continent":{"id":2,"name":"Europa","iso":"EU"}},{"id":211,"name":"Ucrania","iso":"UA","zipcodeValidation":null,"phoneCode":380,"phoneValidation":null,"langIso":"uk_UA,uk,ru_UA,ru,en_UA,en","continentId":2,"continent":{"id":2,"name":"Europa","iso":"EU"}},{"id":212,"name":"Uruguay","iso":"UY","zipcodeValidation":null,"phoneCode":598,"phoneValidation":null,"langIso":"es_UY,es,en","continentId":6,"continent":{"id":6,"name":"América del Sur","iso":"SA"}},{"id":213,"name":"Uganda","iso":"UG","zipcodeValidation":null,"phoneCode":256,"phoneValidation":null,"langIso":"teo_UG,teo,sw_UG,sw,xog_UG,xog,nyn_UG,nyn,lg_UG,lg,en_UG,en,cgg_UG,cgg","continentId":3,"continent":{"id":3,"name":"África","iso":"AF"}},{"id":214,"name":"Uzbekistán","iso":"UZ","zipcodeValidation":null,"phoneCode":998,"phoneValidation":null,"langIso":"uz_UZ,uz,en","continentId":1,"continent":{"id":1,"name":"Asia","iso":"AS"}},{"id":215,"name":"Vanuatu","iso":"VU","zipcodeValidation":null,"phoneCode":678,"phoneValidation":null,"langIso":"fr_VU,fr,en_VU,en","continentId":5,"continent":{"id":5,"name":"Oceanía","iso":"OC"}},{"id":216,"name":"Vietnam","iso":"VN","zipcodeValidation":null,"phoneCode":84,"phoneValidation":null,"langIso":"vi_VN,vi,en","continentId":1,"continent":{"id":1,"name":"Asia","iso":"AS"}},{"id":217,"name":"Wallis y Futuna","iso":"WF","zipcodeValidation":null,"phoneCode":681,"phoneValidation":null,"langIso":"fr_WF,fr,en","continentId":5,"continent":{"id":5,"name":"Oceanía","iso":"OC"}},{"id":218,"name":"Venezuela","iso":"VE","zipcodeValidation":null,"phoneCode":58,"phoneValidation":null,"langIso":"es_VE,es,en","continentId":6,"continent":{"id":6,"name":"América del Sur","iso":"SA"}},{"id":219,"name":"Yemen","iso":"YE","zipcodeValidation":null,"phoneCode":967,"phoneValidation":null,"langIso":"ar_YE,ar,en","continentId":1,"continent":{"id":1,"name":"Asia","iso":"AS"}},{"id":220,"name":"Zambia","iso":"ZM","zipcodeValidation":null,"phoneCode":260,"phoneValidation":null,"langIso":"en_ZM,en,bem_ZM,bem","continentId":3,"continent":{"id":3,"name":"África","iso":"AF"}},{"id":221,"name":"Zimbabue","iso":"ZW","zipcodeValidation":null,"phoneCode":263,"phoneValidation":null,"langIso":"sn_ZW,sn,nd_ZW,nd,en_ZW,en","continentId":3,"continent":{"id":3,"name":"África","iso":"AF"}}],"defaultCountryId":9},"success":true,"status":200}